[{"OBJECT_NAME":"TIANMU-1 07","OBJECT_ID":"2023-101A","EPOCH":"2026-03-06T13:47:20.454720","MEAN_MOTION":15.29118809,"ECCENTRICITY":0.00046097,"INCLINATION":97.2728,"RA_OF_ASC_NODE":118.5929,"ARG_OF_PERICENTER":142.4105,"MEAN_ANOMALY":217.7458,"EPHEMERIS_TYPE":0,"CLASSIFICATION_TYPE":"U","NORAD_CAT_ID":57399,"ELEMENT_SET_NO":999,"REV_AT_EPOCH":14596,"BSTAR":0.00029794732,"MEAN_MOTION_DOT":8.352e-5,"MEAN_MOTION_DDOT":0},{"OBJECT_NAME":"STARLINK-32878","OBJECT_ID":"2025-024P","EPOCH":"2026-03-09T02:18:13.586976","MEAN_MOTION":15.27569647,"ECCENTRICITY":0.00027164,"INCLINATION":43.0033,"RA_OF_ASC_NODE":328.8511,"ARG_OF_PERICENTER":258.6168,"MEAN_ANOMALY":101.4379,"EPHEMERIS_TYPE":0,"CLASSIFICATION_TYPE":"U","NORAD_CAT_ID":62892,"ELEMENT_SET_NO":999,"REV_AT_EPOCH":6217,"BSTAR":0.00015335677,"MEAN_MOTION_DOT":3.959e-5,"MEAN_MOTION_DDOT":0}]
